{"type": "FeatureCollection", "features": [ {"type": "Feature", "properties": {"norad_id": 34738, "name": "COSMOS 2251 DEB", "group": "cosmos-2251-debris", "lat": -71.54581645489063, "lon": 13.659971286053054, "alt_km": 712.7563482141422, "timestamp": "2025-12-17T10:52:54.747386+00:00", "meta": {"OBJECT_NAME": "COSMOS 2251 DEB", "OBJECT_ID": "1993-036ZG", "EPOCH": "2025-12-16T20:59:29.028192", "MEAN_MOTION": 14.46312283, "ECCENTRICITY": 0.00474221, "INCLINATION": 74.0149, "RA_OF_ASC_NODE": 135.5378, "ARG_OF_PERICENTER": 281.0218, "MEAN_ANOMALY": 207.5333, "EPHEMERIS_TYPE": 0, "CLASSIFICATION_TYPE": "U", "NORAD_CAT_ID": 34738, "ELEMENT_SET_NO": 999, "REV_AT_EPOCH": 87918, "BSTAR": 0.0002986628, "MEAN_MOTION_DOT": 1.058e-05, "MEAN_MOTION_DDOT": 0}, "tle": {"line1": "1 34738U 93036ZG  25350.87464153  .00001058  00000+0  29866-3 0  9996", "line2": "2 34738  74.0149 135.5378 0047422 281.0218 207.5333 14.46312283879185"}}, "geometry": {"type": "Point", "coordinates": [13.659971286053054, -71.54581645489063]}}, {"type": "Feature", "properties": {"norad_id": 34750, "name": "COSMOS 2251 DEB", "group": "cosmos-2251-debris", "lat": -44.25462106449671, "lon": 176.6605073991266, "alt_km": 721.9518949070825, "timestamp": "2025-12-17T10:52:54.747397+00:00", "meta": {"OBJECT_NAME": "COSMOS 2251 DEB", "OBJECT_ID": "1993-036ZU", "EPOCH": "2025-12-17T00:16:49.073376", "MEAN_MOTION": 14.61364393, "ECCENTRICITY": 0.00386526, "INCLINATION": 74.107, "RA_OF_ASC_NODE": 193.618, "ARG_OF_PERICENTER": 145.2516, "MEAN_ANOMALY": 5.2754, "EPHEMERIS_TYPE": 0, "CLASSIFICATION_TYPE": "U", "NORAD_CAT_ID": 34750, "ELEMENT_SET_NO": 999, "REV_AT_EPOCH": 88293, "BSTAR": 0.00079827854, "MEAN_MOTION_DOT": 3.961e-05, "MEAN_MOTION_DDOT": 0}, "tle": {"line1": "1 34750U 93036ZU  25351.01167909  .00003961  00000+0  79828-3 0  9994", "line2": "2 34750  74.1070 193.6180 0038652 145.2516   5.2754 14.61364393882939"}}, "geometry": {"type": "Point", "coordinates": [176.6605073991266, -44.25462106449671]}}, {"type": "Feature", "properties": {"norad_id": 34752, "name": "COSMOS 2251 DEB", "group": "cosmos-2251-debris", "lat": 27.68961117999697, "lon": -0.335119123954724, "alt_km": 564.5500783686866, "timestamp": "2025-12-17T10:52:54.747407+00:00", "meta": {"OBJECT_NAME": "COSMOS 2251 DEB", "OBJECT_ID": "1993-036ZW", "EPOCH": "2025-12-16T10:44:35.783232", "MEAN_MOTION": 15.00015929, "ECCENTRICITY": 0.00475384, "INCLINATION": 74.0132, "RA_OF_ASC_NODE": 353.058, "ARG_OF_PERICENTER": 120.2415, "MEAN_ANOMALY": 240.3491, "EPHEMERIS_TYPE": 0, "CLASSIFICATION_TYPE": "U", "NORAD_CAT_ID": 34752, "ELEMENT_SET_NO": 999, "REV_AT_EPOCH": 89905, "BSTAR": 0.0006204636, "MEAN_MOTION_DOT": 7.874e-05, "MEAN_MOTION_DDOT": 0}, "tle": {"line1": "1 34752U 93036ZW  25350.44763638  .00007874  00000+0  62046-3 0  9994", "line2": "2 34752  74.0132 353.0580 0047538 120.2415 240.3491 15.00015929899052"}}, "geometry": {"type": "Point", "coordinates": [-0.335119123954724, 27.68961117999697]}}, {"type": "Feature", "properties": {"norad_id": 34754, "name": "COSMOS 2251 DEB", "group": "cosmos-2251-debris", "lat": 68.16418071549414, "lon": -95.49936044504148, "alt_km": 753.8585074297889, "timestamp": "2025-12-17T10:52:54.747417+00:00", "meta": {"OBJECT_NAME": "COSMOS 2251 DEB", "OBJECT_ID": "1993-036ZY", "EPOCH": "2025-12-16T16:28:02.583264", "MEAN_MOTION": 14.40487403, "ECCENTRICITY": 0.00297202, "INCLINATION": 74.0298, "RA_OF_ASC_NODE": 220.3028, "ARG_OF_PERICENTER": 335.6347, "MEAN_ANOMALY": 81.7069, "EPHEMERIS_TYPE": 0, "CLASSIFICATION_TYPE": "U", "NORAD_CAT_ID": 34754, "ELEMENT_SET_NO": 999, "REV_AT_EPOCH": 88190, "BSTAR": 0.00019019849, "MEAN_MOTION_DOT": 5.81e-06, "MEAN_MOTION_DDOT": 0}, "tle": {"line1": "1 34754U 93036ZY  25350.68614101  .00000581  00000+0  19020-3 0  9994", "line2": "2 34754  74.0298 220.3028 0029720 335.6347  81.7069 14.40487403881905"}}, "geometry": {"type": "Point", "coordinates": [-95.49936044504148, 68.16418071549414]}}, {"type": "Feature", "properties": {"norad_id": 34755, "name": "COSMOS 2251 DEB", "group": "cosmos-2251-debris", "lat": 71.01200090394029, "lon": 45.53001659576909, "alt_km": 1344.7789527821833, "timestamp": "2025-12-17T10:52:54.747427+00:00", "meta": {"OBJECT_NAME": "COSMOS 2251 DEB", "OBJECT_ID": "1993-036ZZ", "EPOCH": "2025-12-15T12:45:24.180768", "MEAN_MOTION": 13.50566127, "ECCENTRICITY": 0.04082662, "INCLINATION": 73.9259, "RA_OF_ASC_NODE": 285.5372, "ARG_OF_PERICENTER": 304.8647, "MEAN_ANOMALY": 172.7755, "EPHEMERIS_TYPE": 0, "CLASSIFICATION_TYPE": "U", "NORAD_CAT_ID": 34755, "ELEMENT_SET_NO": 999, "REV_AT_EPOCH": 82561, "BSTAR": 0.00098242493, "MEAN_MOTION_DOT": 1.036e-05, "MEAN_MOTION_DDOT": 0}, "tle": {"line1": "1 34755U 93036ZZ  25349.53152987  .00001036  00000+0  98242-3 0  9995", "line2": "2 34755  73.9259 285.5372 0408266 304.8647 172.7755 13.50566127825613"}}, "geometry": {"type": "Point", "coordinates": [45.53001659576909, 71.01200090394029]}}, {"type": "Feature", "properties": {"norad_id": 34756, "name": "COSMOS 2251 DEB", "group": "cosmos-2251-debris", "lat": -68.564310085132, "lon": 49.67795251410141, "alt_km": 837.5891123613756, "timestamp": "2025-12-17T10:52:54.747437+00:00", "meta": {"OBJECT_NAME": "COSMOS 2251 DEB", "OBJECT_ID": "1993-036AAA", "EPOCH": "2025-12-16T08:53:18.201984", "MEAN_MOTION": 13.67251835, "ECCENTRICITY": 0.03452801, "INCLINATION": 74.003, "RA_OF_ASC_NODE": 98.3991, "ARG_OF_PERICENTER": 333.4281, "MEAN_ANOMALY": 24.9484, "EPHEMERIS_TYPE": 0, "CLASSIFICATION_TYPE": "U", "NORAD_CAT_ID": 34756, "ELEMENT_SET_NO": 999, "REV_AT_EPOCH": 83471, "BSTAR": 0.00093292845, "MEAN_MOTION_DOT": 1.159e-05, "MEAN_MOTION_DDOT": 0}, "tle": {"line1": "1 34756U 93036AAA 25350.37034956  .00001159  00000+0  93293-3 0  9992", "line2": "2 34756  74.0030  98.3991 0345280 333.4281  24.9484 13.67251835834711"}}, "geometry": {"type": "Point", "coordinates": [49.67795251410141, -68.564310085132]}}, {"type": "Feature", "properties": {"norad_id": 34758, "name": "COSMOS 2251 DEB", "group": "cosmos-2251-debris", "lat": -59.502773974680245, "lon": 140.83831355486913, "alt_km": 1328.8521044932822, "timestamp": "2025-12-17T10:52:54.747447+00:00", "meta": {"OBJECT_NAME": "COSMOS 2251 DEB", "OBJECT_ID": "1993-036AAC", "EPOCH": "2025-12-16T21:19:30.682848", "MEAN_MOTION": 13.58083307, "ECCENTRICITY": 0.03816062, "INCLINATION": 74.1075, "RA_OF_ASC_NODE": 292.82, "ARG_OF_PERICENTER": 55.5603, "MEAN_ANOMALY": 308.0954, "EPHEMERIS_TYPE": 0, "CLASSIFICATION_TYPE": "U", "NORAD_CAT_ID": 34758, "ELEMENT_SET_NO": 999, "REV_AT_EPOCH": 82966, "BSTAR": 0.0014539123, "MEAN_MOTION_DOT": 1.674e-05, "MEAN_MOTION_DDOT": 0}, "tle": {"line1": "1 34758U 93036AAC 25350.88854957  .00001674  00000+0  14539-2 0  9998", "line2": "2 34758  74.1075 292.8200 0381606  55.5603 308.0954 13.58083307829662"}}, "geometry": {"type": "Point", "coordinates": [140.83831355486913, -59.502773974680245]}}, {"type": "Feature", "properties": {"norad_id": 34760, "name": "COSMOS 2251 DEB", "group": "cosmos-2251-debris", "lat": 72.07946223978192, "lon": 51.87736694243162, "alt_km": 846.5090760937346, "timestamp": "2025-12-17T10:52:54.747458+00:00", "meta": {"OBJECT_NAME": "COSMOS 2251 DEB", "OBJECT_ID": "1993-036AAE", "EPOCH": "2025-12-15T15:17:34.568160", "MEAN_MOTION": 14.19579445, "ECCENTRICITY": 0.00969523, "INCLINATION": 74.0638, "RA_OF_ASC_NODE": 297.1884, "ARG_OF_PERICENTER": 348.6722, "MEAN_ANOMALY": 190.5489, "EPHEMERIS_TYPE": 0, "CLASSIFICATION_TYPE": "U", "NORAD_CAT_ID": 34760, "ELEMENT_SET_NO": 999, "REV_AT_EPOCH": 86729, "BSTAR": 0.00062937679, "MEAN_MOTION_DOT": 1.367e-05, "MEAN_MOTION_DDOT": 0}, "tle": {"line1": "1 34760U 93036AAE 25349.63720565  .00001367  00000+0  62938-3 0  9995", "line2": "2 34760  74.0638 297.1884 0096952 348.6722 190.5489 14.19579445867299"}}, "geometry": {"type": "Point", "coordinates": [51.87736694243162, 72.07946223978192]}}, {"type": "Feature", "properties": {"norad_id": 34761, "name": "COSMOS 2251 DEB", "group": "cosmos-2251-debris", "lat": -28.622198313296195, "lon": -14.885939969708565, "alt_km": 755.925833996962, "timestamp": "2025-12-17T10:52:54.747468+00:00", "meta": {"OBJECT_NAME": "COSMOS 2251 DEB", "OBJECT_ID": "1993-036AAF", "EPOCH": "2025-12-16T18:19:26.421600", "MEAN_MOTION": 14.38063879, "ECCENTRICITY": 0.00366118, "INCLINATION": 74.0292, "RA_OF_ASC_NODE": 355.3761, "ARG_OF_PERICENTER": 28.2652, "MEAN_ANOMALY": 332.0478, "EPHEMERIS_TYPE": 0, "CLASSIFICATION_TYPE": "U", "NORAD_CAT_ID": 34761, "ELEMENT_SET_NO": 999, "REV_AT_EPOCH": 87707, "BSTAR": 0.00049629048, "MEAN_MOTION_DOT": 1.489e-05, "MEAN_MOTION_DDOT": 0}, "tle": {"line1": "1 34761U 93036AAF 25350.76350025  .00001489  00000+0  49629-3 0  9999", "line2": "2 34761  74.0292 355.3761 0036611  28.2652 332.0478 14.38063879877074"}}, "geometry": {"type": "Point", "coordinates": [-14.885939969708565, -28.622198313296195]}}, {"type": "Feature", "properties": {"norad_id": 34784, "name": "COSMOS 2251 DEB", "group": "cosmos-2251-debris", "lat": -45.24450074655043, "lon": 152.14691030678242, "alt_km": 705.3742819886611, "timestamp": "2025-12-17T10:52:54.747478+00:00", "meta": {"OBJECT_NAME": "COSMOS 2251 DEB", "OBJECT_ID": "1993-036AAM", "EPOCH": "2025-12-16T22:20:34.488672", "MEAN_MOTION": 14.60798995, "ECCENTRICITY": 0.00492666, "INCLINATION": 74.0072, "RA_OF_ASC_NODE": 316.333, "ARG_OF_PERICENTER": 124.4383, "MEAN_ANOMALY": 236.1454, "EPHEMERIS_TYPE": 0, "CLASSIFICATION_TYPE": "U", "NORAD_CAT_ID": 34784, "ELEMENT_SET_NO": 999, "REV_AT_EPOCH": 88596, "BSTAR": 0.00037254582, "MEAN_MOTION_DOT": 1.82e-05, "MEAN_MOTION_DDOT": 0}, "tle": {"line1": "1 34784U 93036AAM 25350.93095473  .00001820  00000+0  37255-3 0  9997", "line2": "2 34784  74.0072 316.3330 0049266 124.4383 236.1454 14.60798995885968"}}, "geometry": {"type": "Point", "coordinates": [152.14691030678242, -45.24450074655043]}}]}